{
  "type": "FeatureCollection",
  "features": [
    {
      "type": "Feature",
      "properties": {
        "norad_id": 31736,
        "name": "FENGYUN 1C DEB",
        "group": "fengyun-1c-debris",
        "lat": 2.959681223825469,
        "lon": -5.517900332890696,
        "alt_km": 854.0066413177801,
        "timestamp": "2025-12-19T04:59:48.589916+00:00",
        "meta_object_name": "FENGYUN 1C DEB",
        "meta_object_id": "1999-025CEK",
        "meta_epoch": "2025-12-18T20:29:32.925120",
        "meta_mean_motion": 14.14187403,
        "meta_eccentricity": 0.00112563,
        "meta_inclination": 98.678,
        "meta_ra_of_asc_node": 354.5904,
        "meta_arg_of_pericenter": 221.9883,
        "meta_mean_anomaly": 138.0428,
        "meta_ephemeris_type": 0,
        "meta_classification_type": "U",
        "meta_norad_cat_id": 31736,
        "meta_element_set_no": 999,
        "meta_rev_at_epoch": 64151,
        "meta_bstar": 0.00013491285,
        "meta_mean_motion_dot": 2.15e-06,
        "meta_mean_motion_ddot": 0,
        "tle_line1": "1 31736U 99025CEK 25352.85385330  .00000215  00000+0  13491-3 0  9995",
        "tle_line2": "2 31736  98.6780 354.5904 0011256 221.9883 138.0428 14.14187403641514"
      },
      "geometry": {
        "type": "Point",
        "coordinates": [
          -5.517900332890696,
          2.959681223825469
        ]
      }
    },
    {
      "type": "Feature",
      "properties": {
        "norad_id": 31737,
        "name": "FENGYUN 1C DEB",
        "group": "fengyun-1c-debris",
        "lat": 64.86106429336664,
        "lon": -136.22839577627826,
        "alt_km": 707.7225290951637,
        "timestamp": "2025-12-19T04:59:48.589926+00:00",
        "meta_object_name": "FENGYUN 1C DEB",
        "meta_object_id": "1999-025CEL",
        "meta_epoch": "2025-12-18T08:55:36.899904",
        "meta_mean_motion": 14.6878483,
        "meta_eccentricity": 0.01482848,
        "meta_inclination": 97.9169,
        "meta_ra_of_asc_node": 25.7116,
        "meta_arg_of_pericenter": 357.7601,
        "meta_mean_anomaly": 15.5337,
        "meta_ephemeris_type": 0,
        "meta_classification_type": "U",
        "meta_norad_cat_id": 31737,
        "meta_element_set_no": 999,
        "meta_rev_at_epoch": 98282,
        "meta_bstar": 0.00048765365,
        "meta_mean_motion_dot": 3.309e-05,
        "meta_mean_motion_ddot": 0,
        "tle_line1": "1 31737U 99025CEL 25352.37195486  .00003309  00000+0  48765-3 0  9993",
        "tle_line2": "2 31737  97.9169  25.7116 0148284 357.7601  15.5337 14.68784830982824"
      },
      "geometry": {
        "type": "Point",
        "coordinates": [
          -136.22839577627826,
          64.86106429336664
        ]
      }
    },
    {
      "type": "Feature",
      "properties": {
        "norad_id": 31738,
        "name": "FENGYUN 1C DEB",
        "group": "fengyun-1c-debris",
        "lat": -4.942386901286878,
        "lon": 61.26637746745372,
        "alt_km": 934.3385314007455,
        "timestamp": "2025-12-19T04:59:48.589936+00:00",
        "meta_object_name": "FENGYUN 1C DEB",
        "meta_object_id": "1999-025CEM",
        "meta_epoch": "2025-12-16T00:44:19.227840",
        "meta_mean_motion": 13.85068402,
        "meta_eccentricity": 0.03071982,
        "meta_inclination": 99.3598,
        "meta_ra_of_asc_node": 57.2745,
        "meta_arg_of_pericenter": 91.5021,
        "meta_mean_anomaly": 272.1342,
        "meta_ephemeris_type": 0,
        "meta_classification_type": "U",
        "meta_norad_cat_id": 31738,
        "meta_element_set_no": 999,
        "meta_rev_at_epoch": 62303,
        "meta_bstar": 0.00086045349,
        "meta_mean_motion_dot": 1.365e-05,
        "meta_mean_motion_ddot": 0,
        "tle_line1": "1 31738U 99025CEM 25350.03077810  .00001365  00000+0  86045-3 0  9998",
        "tle_line2": "2 31738  99.3598  57.2745 0307198  91.5021 272.1342 13.85068402623035"
      },
      "geometry": {
        "type": "Point",
        "coordinates": [
          61.26637746745372,
          -4.942386901286878
        ]
      }
    },
    {
      "type": "Feature",
      "properties": {
        "norad_id": 31739,
        "name": "FENGYUN 1C DEB",
        "group": "fengyun-1c-debris",
        "lat": -10.404691299089029,
        "lon": 50.0782734260638,
        "alt_km": 799.7166187153589,
        "timestamp": "2025-12-19T04:59:48.589946+00:00",
        "meta_object_name": "FENGYUN 1C DEB",
        "meta_object_id": "1999-025CEN",
        "meta_epoch": "2025-12-17T20:53:51.315648",
        "meta_mean_motion": 14.19220052,
        "meta_eccentricity": 0.01282982,
        "meta_inclination": 98.7472,
        "meta_ra_of_asc_node": 47.1378,
        "meta_arg_of_pericenter": 63.5862,
        "meta_mean_anomaly": 297.8416,
        "meta_ephemeris_type": 0,
        "meta_classification_type": "U",
        "meta_norad_cat_id": 31739,
        "meta_element_set_no": 999,
        "meta_rev_at_epoch": 95559,
        "meta_bstar": 8.0451342e-05,
        "meta_mean_motion_dot": 1.4e-06,
        "meta_mean_motion_ddot": 0,
        "tle_line1": "1 31739U 99025CEN 25351.87073282  .00000140  00000+0  80451-4 0  9997",
        "tle_line2": "2 31739  98.7472  47.1378 0128298  63.5862 297.8416 14.19220052955598"
      },
      "geometry": {
        "type": "Point",
        "coordinates": [
          50.0782734260638,
          -10.404691299089029
        ]
      }
    },
    {
      "type": "Feature",
      "properties": {
        "norad_id": 31740,
        "name": "FENGYUN 1C DEB",
        "group": "fengyun-1c-debris",
        "lat": 57.684210366482205,
        "lon": 1.4102848436256366,
        "alt_km": 739.9561376701276,
        "timestamp": "2025-12-19T04:59:48.589957+00:00",
        "meta_object_name": "FENGYUN 1C DEB",
        "meta_object_id": "1999-025CEP",
        "meta_epoch": "2025-12-14T23:34:19.860384",
        "meta_mean_motion": 14.42186075,
        "meta_eccentricity": 0.00242908,
        "meta_inclination": 99.8218,
        "meta_ra_of_asc_node": 160.6587,
        "meta_arg_of_pericenter": 61.8964,
        "meta_mean_anomaly": 89.7364,
        "meta_ephemeris_type": 0,
        "meta_classification_type": "U",
        "meta_norad_cat_id": 31740,
        "meta_element_set_no": 999,
        "meta_rev_at_epoch": 65107,
        "meta_bstar": 0.00089360339,
        "meta_mean_motion_dot": 2.898e-05,
        "meta_mean_motion_ddot": 0,
        "tle_line1": "1 31740U 99025CEP 25348.98217431  .00002898  00000+0  89360-3 0  9992",
        "tle_line2": "2 31740  99.8218 160.6587 0024290  61.8964  89.7364 14.42186075651072"
      },
      "geometry": {
        "type": "Point",
        "coordinates": [
          1.4102848436256366,
          57.684210366482205
        ]
      }
    },
    {
      "type": "Feature",
      "properties": {
        "norad_id": 31742,
        "name": "FENGYUN 1C DEB",
        "group": "fengyun-1c-debris",
        "lat": 13.06320163933017,
        "lon": 35.37055573447654,
        "alt_km": 803.943812287881,
        "timestamp": "2025-12-19T04:59:48.589967+00:00",
        "meta_object_name": "FENGYUN 1C DEB",
        "meta_object_id": "1999-025CER",
        "meta_epoch": "2025-12-18T08:12:21.525984",
        "meta_mean_motion": 14.39819052,
        "meta_eccentricity": 0.00763571,
        "meta_inclination": 98.9188,
        "meta_ra_of_asc_node": 212.3809,
        "meta_arg_of_pericenter": 312.9024,
        "meta_mean_anomaly": 46.5769,
        "meta_ephemeris_type": 0,
        "meta_classification_type": "U",
        "meta_norad_cat_id": 31742,
        "meta_element_set_no": 999,
        "meta_rev_at_epoch": 96730,
        "meta_bstar": 0.00054482467,
        "meta_mean_motion_dot": 1.72e-05,
        "meta_mean_motion_ddot": 0,
        "tle_line1": "1 31742U 99025CER 25352.34191581  .00001720  00000+0  54482-3 0  9996",
        "tle_line2": "2 31742  98.9188 212.3809 0076357 312.9024  46.5769 14.39819052967300"
      },
      "geometry": {
        "type": "Point",
        "coordinates": [
          35.37055573447654,
          13.06320163933017
        ]
      }
    },
    {
      "type": "Feature",
      "properties": {
        "norad_id": 31743,
        "name": "FENGYUN 1C DEB",
        "group": "fengyun-1c-debris",
        "lat": 51.33258960825938,
        "lon": -90.14733225682416,
        "alt_km": 804.9506590492447,
        "timestamp": "2025-12-19T04:59:48.589977+00:00",
        "meta_object_name": "FENGYUN 1C DEB",
        "meta_object_id": "1999-025CES",
        "meta_epoch": "2025-12-17T01:02:10.055616",
        "meta_mean_motion": 14.31327674,
        "meta_eccentricity": 0.00372876,
        "meta_inclination": 99.1426,
        "meta_ra_of_asc_node": 279.1851,
        "meta_arg_of_pericenter": 206.0396,
        "meta_mean_anomaly": 216.8231,
        "meta_ephemeris_type": 0,
        "meta_classification_type": "U",
        "meta_norad_cat_id": 31743,
        "meta_element_set_no": 999,
        "meta_rev_at_epoch": 95702,
        "meta_bstar": 0.001108437,
        "meta_mean_motion_dot": 2.91e-05,
        "meta_mean_motion_ddot": 0,
        "tle_line1": "1 31743U 99025CES 25351.04317194  .00002910  00000+0  11084-2 0  9995",
        "tle_line2": "2 31743  99.1426 279.1851 0037287 206.0396 216.8231 14.31327674957021"
      },
      "geometry": {
        "type": "Point",
        "coordinates": [
          -90.14733225682416,
          51.33258960825938
        ]
      }
    }
  ]
}